ONEWEB-0228             
1 48780U 21045P   24228.57281020  .00000034  00000+0  55711-4 0  9991
2 48780  87.9033  32.6243 0001675  91.5141 268.6181 13.15546277156150
